#dP2022  8  3  0  0  0.00000000      96 __u+U ITR00 FIT  IAC
## 2221 259200.00000000   900.00000000 59794 0.0000000000000
+  116   C06C07C08C09C10C11C12C13C14C16C19C20C21C22C23C24C25
+        C26C27C28C29C30C32C33C34C35C36C37C38C39C40C41C42C43
+        C44C45C46E01E02E03E04E05E07E08E09E10E11E12E13E14E15
+        E18E19E21E24E25E26E27E30E31E33E34E36G01G02G03G04G05
+        G06G07G08G09G10G11G12G13G14G15G16G17G18G19G20G21G22
+        G23G24G25G26G27G28G29G30G31G32J02J03R01R02R03R04R05
+        R07R08R09R11R12R13R14R15R17R18R19R20R21R24  0  0  0
++         6  8  8  7  8  7  7  6  7  6  7  8  7  7  6  6  6
++         6  5  8  6  6  6  8  5  6  7  6  8  8  7  8  5  7
++         7  6  8  6  5  6  6  5  5  7  7  6  6  6  7  7  6
++         6  6  6  6  6  7  6  6  6  7  6  6  6  6  5  5  6
++         6  7  7  6  5  6  7  6  6  6  7  5  5  6  7  6  7
++         5  6  6  4  8  5  6  6  6  6  8  7  8  7  7  6  7
++         6  7  7  5  6  6  6  6  7  7  6  7  7  6  0  0  0
%c M  cc GPS ccc cccc cccc cccc cccc ccccc ccccc ccccc ccccc
%c cc cc ccc ccc cccc cccc cccc cccc ccccc ccccc ccccc ccccc
%f  0.0000000  0.000000000  0.00000000000  0.000000000000000
%f  0.0000000  0.000000000  0.00000000000  0.000000000000000
%i    0    0    0    0      0      0      0      0         0
%i    0    0    0    0      0      0      0      0         0
/* INFORMATION & ANALYSIS CENTER (IAC)      ULTRA-RAPID DATA
/* S/V CLOCKS ARE ALIGNED TO GNSS TIME                      
/* G:C1WC2W R:C1PC2P E:C1XC5X C:C2IC6I J:C1CC2S             
/* PCV:IGS14_2215 OL/AL:FES2004  NONE     YN ORB:CoN CLK:CoN
*  2022 08 03 12 15  0.00000000
PC06  -1983.718110  28027.097736  31519.910869    530.961024
PC07 -17043.318792  30565.447468 -23582.127967   -515.760982
PC08  -8718.960492  40832.503623  -5098.004693    428.214113
PC09   5432.764199  31849.197336  27725.134189   -907.232613
PC10 -10492.327175  30561.714364 -27032.119418    112.402808
PC11   5075.204300 -15038.229838  23016.504246   -491.656331
PC12  20171.347964  -1190.141194  19267.331088   -560.729854
PC13  -4549.893142  41763.008404    475.495695     42.313350
PC14  14986.501886 -18376.125103 -14650.500203    572.103914
PC16  -4524.896110  26144.523072  33015.722020    143.176893
PC19  -5227.382001  18136.415628  20582.669531   -349.110541
PC20 -21249.605956  16251.833188   8011.031789   -965.111285
PC21  25559.987432  -4369.049395  10290.616874   -111.864097
PC22  14501.101297   9643.975014  21793.946683    -13.811603
PC23 -10085.091977 -20301.456403  16288.962819   -956.375097
PC24  13268.556925 -18416.442143 -16249.090207   -968.005241
PC25    930.106994 -27885.192494    957.323451   -698.271709
PC26  16313.220069   -444.406607 -22645.171306    700.414475
PC27 -24003.770294  -6066.750187 -12890.260516    764.169816
PC28 -20945.409728 -18052.578159   3796.908495     97.462333
PC29   5709.717218  19544.440980 -19091.456289    590.383047
PC30 -13694.159703   9601.988472 -22346.296463    501.758548
PC32 -25530.164623   4540.900339 -10319.947744   -323.267456
PC33   5185.117309 -18188.126096 -20512.297082   -320.664882
PC34  12787.848842 -10389.141333  22510.364612   -344.451345
PC35  20882.392713  17850.255551  -4999.768452    395.417261
PC36  -1980.821561  27830.943659   -383.136103   -970.019891
PC37 -16223.764803  -1424.072296  22682.509243   -926.097500
PC38 -12783.184626  38087.039557 -12472.108854     14.605213
PC39  -9411.541736  22665.427243  34321.791619     -0.171900
PC40 -24329.918792  25050.793464 -23779.960867     -1.659502
PC41 -14105.609363  -9928.028096 -21890.042989   -134.702313
PC42  21899.171803 -15819.291312  -6908.522273    -50.261306
PC43  -4846.038727 -19451.845119  19394.337349      6.567486
PC44  24311.716588   5355.316190  12622.158919      5.701726
PC45  10166.957975  20010.693730 -16559.121182    825.543285
PC46 -12507.172237  19778.742519  15185.794347   -466.615918
PE01 -20792.133188   5618.400087  20312.258260   -527.600150
PE02  20839.194877  -5821.179826 -20199.691566    316.030654
PE03  29463.752759    416.912557  -2725.493505   -585.652977
PE04 -19729.652389  11665.597078  18739.748142  -1085.433186
PE05  22073.795859  12517.858147  15238.416813   -156.965040
PE07  -1986.981208 -17140.930421 -24045.355625   -693.275542
PE08  19537.615245 -11688.975100 -18907.248811   -574.829081
PE09   1978.132386  16994.893517  24156.280401   -610.060391
PE10  -2017.725702  23065.644841 -18449.670877   -504.930641
PE11   5936.311785  27248.500893  -9950.887744   2774.402508
PE12  -9350.944046  15582.194786 -23377.285773    -95.773162
PE13  -5488.752979 -27073.225472  10630.598305    430.090798
PE14  10944.512968 -11964.206254  17121.164843  -1760.301624
PE15   9366.059821 -15403.319211  23475.260390    729.221461
PE18 -17181.057300  15162.119308 -22878.623978  -1138.508804
PE19 -29517.449370  -2202.690380    301.616570  -4912.466185
PE21 -11217.088313 -12814.692744  24215.914945   -749.664744
PE24  -6384.103466  25468.289080 -13654.782519   -760.407819
PE25  10994.272394  13071.821288 -24162.372370   -583.291232
PE26 -17315.044147 -22200.540813  -9155.947708  -1451.963081
PE27   5406.642330 -25219.222879  14537.848314   -359.740291
PE30  19178.149486 -22109.323837  -4461.099888   -724.536877
PE31 -18705.394885  22654.686160   3630.120951   -501.027120
PE33 -18613.281825  -5283.860510 -22404.354875   -454.147000
PE34  18574.160757   5045.040528  22470.829013   -489.085660
PE36  16987.969293  22763.445067   8328.162683   -411.429635
PG01  15311.887710   1161.186247  21413.635035    309.009256
PG02 -16172.380247 -17475.915030 -10986.892627   -650.038347
PG03  20214.712446  -8037.004426  15037.756436   -323.321014
PG04  25742.083368    846.816117  -6680.106419   -137.884448
PG05 -15105.346004  -4972.474798 -21468.305393    -91.518902
PG06  -5747.023191 -25493.601306   4578.538465    410.920103
PG07   8899.867240 -15586.535978 -18997.318540    316.523733
PG08  26146.096322   5399.300100  -1756.774637    -78.914709
PG09  19601.071207  -8287.043508 -15988.132871   -312.280846
PG10  -9043.143533  22303.589675  11037.072125   -514.916435
PG11 -12338.572535 -22170.676552  -7905.438791    -10.515560
PG12 -20236.204702   4716.757684  16219.229419   -256.498231
PG13 -21265.767970 -13431.799727  -8973.635010    360.853977
PG14  11129.879706 -22128.800485   9446.996176   -110.517556
PG15 -26496.668005  -2994.353470  -2240.989605    -40.264751
PG16  10272.124866  11179.599952 -22058.106834   -518.756718
PG17   4507.789223 -14361.820677  22317.512660    644.304549
PG18  -8513.460724  16072.113698 -19321.595956     93.491112
PG19  -6299.636647 -15983.442774  20073.815523    192.272002
PG20  -6592.596489 -16636.216727 -19690.552588    497.863296
PG21  18099.277933  10154.332463  17591.481945    160.763075
PG22   8952.811086  16394.730457  19367.665000    303.422299
PG23 -16159.208167  20984.764651    761.702153    -35.565750
PG24 -17648.200665  -4754.306257  19097.144157    179.245012
PG25 -19573.353394  16475.017301   6297.318134    356.628182
PG26   2929.185986  18757.903589 -18537.346044    221.755422
PG27  19574.689783  12721.856591 -13242.195585    220.522659
PG28   3862.921116 -20376.308649  17234.773816    339.074043
PG29 -20153.025316   6031.953714 -16313.234522   -539.514448
PG30   1517.397049 -23382.392116 -12171.423503   -535.271648
PG31   7108.278176  25262.320472   1692.436817   -188.258281
PG32   -603.329591  15411.744829  21780.632564   -193.630915
PJ02 -33953.936075  24444.798599  10535.248167     -2.579033
PJ03 -21697.904215  20076.012860 -25468.410812     -0.416406
PR01  16303.680698   4742.577304  19029.725066     12.532939
PR02  24883.667639  -5198.869595   2523.680583    525.886188
PR03  17675.385802 -11669.624202 -14214.548802     61.254881
PR04    855.314205 -11244.930117 -22854.192914    152.723830
PR05 -16421.239787  -4859.756322 -18885.416333     97.309007
PR07 -16974.157815  11811.662212  14937.807058     38.824248
PR08   -575.667233  11351.856968  22887.988855    -66.512123
PR09 -12506.218661   7133.548309  21098.090318     69.238454
PR11  -2385.402144  24231.460565  -7617.628386     31.507839
PR12   7305.505093  12124.244407 -21184.887322     19.719043
PR13  12152.394103  -5553.802531 -21735.626037    -25.310808
PR14  10036.496107 -21704.792597  -8831.915219     24.658494
PR15   2078.433906 -23941.949808   8568.387601     94.383111
PR17   5243.670112  -9589.365853  23053.151561    549.158092
PR18  -8595.061625 -18606.070271  15164.918780     35.737886
PR19 -17122.721895 -18909.277257    479.280504   -198.663891
PR20 -16816.582190  -6508.907404 -18024.269449    -75.837739
PR21  -4020.305554  10599.708850 -22853.112732   -322.575157
PR24  16986.087925   5228.186976  18297.985575    106.958262
EOF
